NORAD_CAT_ID,OBJECT_NAME,OBJECT_TYPE,EPOCH,MEAN_MOTION,ECCENTRICITY,INCLINATION,RA_OF_ASC_NODE,ARG_OF_PERICENTER,MEAN_ANOMALY,BSTAR,MEAN_MOTION_DOT,MEAN_MOTION_DDOT,TLE_LINE0,TLE_LINE1,TLE_LINE2,SEMIMAJOR_AXIS,PERIOD,APOGEE,PERIGEE,DECAYED
52331.0,STARLINK-3889,PAYLOAD,2022-10-16 15:12:03,15.08820131,0.0001813,53.2172,15.953,31.7918,328.3184,-0.00039267,-6.529e-05,0.0,0 STARLINK-3889,1 52331U 22045A   22289.63337044 -.00006529  00000-0 -39267-3 0  9994,2 52331  53.2172  15.9530 0001813  31.7918 328.3184 15.08820131 28436,6917.941,95.439,541.06,538.552,0.0
52331.0,STARLINK-3889,PAYLOAD,2022-10-17 11:52:04,15.08838809,0.0002012,53.2173,12.0863,32.4095,327.702,0.00096663,0.00015129,0.0,0 STARLINK-3889,1 52331U 22045A   22290.49450074  .00015129  00000-0  96663-3 0  9996,2 52331  53.2173  12.0863 0002012  32.4095 327.7020 15.08838809 28567,6917.884,95.438,541.141,538.357,0.0
52331.0,STARLINK-3889,PAYLOAD,2022-10-18 11:42:52,15.08834272,0.0002171999999999,53.2174,7.6258,33.8248,326.2882,0.00010482,1.3800000000000008e-05,0.0,0 STARLINK-3889,1 52331U 22045A   22291.48810497  .00001380  00000-0  10482-3 0  9994,2 52331  53.2174   7.6258 0002172  33.8248 326.2882 15.08834272 28715,6917.898,95.438,541.265,538.26,0.0
52331.0,STARLINK-3889,PAYLOAD,2022-10-19 11:33:39,15.08839339,0.0002188,53.2178,3.1659,33.2154,326.8975,0.00012649,1.725e-05,0.0,0 STARLINK-3889,1 52331U 22045A   22292.48170598  .00001725  00000-0  12649-3 0  9996,2 52331  53.2178   3.1659 0002188  33.2154 326.8975 15.08839339 28866,6917.882,95.438,541.261,538.234,0.0
52331.0,STARLINK-3889,PAYLOAD,2022-10-20 05:02:53,15.08844272,0.0002273,53.2177,359.8958,30.9042,329.2084,0.00022447,3.286e-05,0.0,0 STARLINK-3889,1 52331U 22045A   22293.21034302  .00003286  00000-0  22447-3 0  9991,2 52331  53.2177 359.8958 0002273  30.9042 329.2084 15.08844272 28975,6917.8669999999975,95.437,541.305,538.16,0.0
52331.0,STARLINK-3889,PAYLOAD,2022-10-20 11:24:26,15.08840992,0.0002218,53.2181,358.705,31.5897,328.5228,0.00016884,2.4e-05,0.0,0 STARLINK-3889,1 52331U 22045A   22293.47530471  .00002400  00000-0  16884-3 0  9992,2 52331  53.2181 358.7050 0002218  31.5897 328.5228 15.08840992 29018,6917.877,95.437,541.2769999999998,538.2080000000002,0.0
52331.0,STARLINK-3889,PAYLOAD,2022-10-20 20:56:44,15.08846754,0.0002177,53.2176,356.9216,30.3142,329.7976,0.00015256,2.141e-05,0.0,0 STARLINK-3889,1 52331U 22045A   22293.87274054  .00002141  00000-0  15256-3 0  9992,2 52331  53.2176 356.9216 0002177  30.3142 329.7976 15.08846754 29071,6917.86,95.437,541.231,538.219,0.0
52331.0,STARLINK-3889,PAYLOAD,2022-10-21 03:18:17,15.08839828,0.0001984,53.2176,355.7318,34.1605,325.9515,3.5248e-05,2.73e-06,0.0,0 STARLINK-3889,1 52331U 22045A   22294.13770284  .00000273  00000-0  35248-4 0  9996,2 52331  53.2176 355.7318 0001984  34.1605 325.9515 15.08839828 29118,6917.880999999999,95.438,541.118,538.373,0.0
52331.0,STARLINK-3889,PAYLOAD,2022-10-21 11:15:13,15.08843709,0.000208,53.218,354.2458,31.3448,328.7668,9.9272e-05,1.292e-05,0.0,0 STARLINK-3889,1 52331U 22045A   22294.46890121  .00001292  00000-0  99272-4 0  9994,2 52331  53.2180 354.2458 0002080  31.3448 328.7668 15.08843709 29162,6917.869000000002,95.437,541.173,538.295,0.0
52331.0,STARLINK-3889,PAYLOAD,2022-10-22 11:06:00,15.08832081,0.0002184,53.2183,349.7851,30.423,329.6889,-1.9655e-05,-6.01e-06,0.0,0 STARLINK-3889,1 52331U 22045A   22295.46250948 -.00000601  00000-0 -19655-4 0  9994,2 52331  53.2183 349.7851 0002184  30.4230 329.6889 15.08832081 29318,6917.905,95.438,541.28,538.259,0.0
52331.0,STARLINK-3889,PAYLOAD,2022-10-22 20:38:19,15.08841947,0.000221,53.2184,348.0009,30.9473,329.1649,3.5000000000000016e-06,-2.33e-06,0.0,0 STARLINK-3889,1 52331U 22045A   22295.85994259 -.00000233  00000-0  35000-5 0  9990,2 52331  53.2184 348.0009 0002210  30.9473 329.1649 15.08841947 29376,6917.874,95.437,541.268,538.211,0.0
52331.0,STARLINK-3889,PAYLOAD,2022-10-23 10:56:46,15.08853674,0.0002283,53.2183,345.324,30.71,329.4025,0.00018019,2.582e-05,0.0,0 STARLINK-3889,1 52331U 22045A   22296.45608916  .00002582  00000-0  18019-3 0  9996,2 52331  53.2183 345.3240 0002283  30.7100 329.4025 15.08853674 29468,6917.839,95.437,541.283,538.124,0.0
52331.0,STARLINK-3889,PAYLOAD,2022-10-23 20:29:05,15.08849355,0.0002346999999999,53.2181,343.5399,31.5728,328.5405,8.769799999999999e-05,1.108e-05,0.0,0 STARLINK-3889,1 52331U 22045A   22296.85353272  .00001108  00000-0  87698-4 0  9995,2 52331  53.2181 343.5399 0002347  31.5728 328.5405 15.08849355 29527,6917.852,95.437,541.34,538.0930000000002,0.0
52331.0,STARLINK-3889,PAYLOAD,2022-10-24 10:47:33,15.08837877,0.0002303,53.2173,340.8646,29.385,330.7271,-1.4321e-05,-5.16e-06,0.0,0 STARLINK-3889,1 52331U 22045A   22297.44969704 -.00000516  00000-0 -14321-4 0  9991,2 52331  53.2173 340.8646 0002303  29.3850 330.7271 15.08837877 29618,6917.887,95.438,541.345,538.159,0.0
52331.0,STARLINK-3889,PAYLOAD,2022-10-24 20:19:54,15.08811917,0.0002483,53.2176,339.0798,30.5104,329.6032,-0.00028964,-4.892e-05,0.0,0 STARLINK-3889,1 52331U 22045A   22297.84715492 -.00004892  00000-0 -28964-3 0  9996,2 52331  53.2176 339.0798 0002483  30.5104 329.6032 15.08811917 29679,6917.965999999999,95.439,541.549,538.113,0.0
52331.0,STARLINK-3889,PAYLOAD,2022-10-25 09:02:59,15.0882527,0.0002445,53.2186,336.6999,33.6839,326.4308,-0.00014775,-2.638e-05,0.0,0 STARLINK-3889,1 52331U 22045A   22298.37708193 -.00002638  00000-0 -14775-3 0  9996,2 52331  53.2186 336.6999 0002445  33.6839 326.4308 15.08825270 29750,6917.925,95.438,541.482,538.099,0.0
52331.0,STARLINK-3889,PAYLOAD,2022-10-26 12:04:33,15.08825262,0.0002426,53.2181,331.6457,34.4279,325.687,0.00018818,2.707e-05,0.0,0 STARLINK-3889,1 52331U 22045A   22299.50316437  .00002707  00000-0  18818-3 0  9995,2 52331  53.2181 331.6457 0002426  34.4279 325.6870 15.08825262 29920,6917.925,95.438,541.469,538.112,0.0
52331.0,STARLINK-3889,PAYLOAD,2022-10-27 10:19:57,15.08848871,0.0002558,53.217,327.4831,33.5044,326.611,0.00048116,7.38e-05,0.0,0 STARLINK-3889,1 52331U 22045A   22300.43052483  .00007380  00000-0  48116-3 0  9994,2 52331  53.2170 327.4831 0002558  33.5044 326.6110 15.08848871 30069,6917.853,95.437,541.488,537.9490000000002,0.0
52331.0,STARLINK-3889,PAYLOAD,2022-10-28 08:35:19,15.08864478,0.0002631999999999,53.2168,323.3192,34.5532,325.5631,0.00029256,4.374e-05,0.0,0 STARLINK-3889,1 52331U 22045A   22301.35787028  .00004374  00000-0  29256-3 0  9990,2 52331  53.2168 323.3192 0002632  34.5532 325.5631 15.08864478 30200,6917.806,95.436,541.491,537.85,0.0
52331.0,STARLINK-3889,PAYLOAD,2022-10-28 18:07:38,15.088587400000002,0.0002517,53.2164,321.5353,32.7736,327.3412,8.3435e-05,1.04e-05,0.0,0 STARLINK-3889,1 52331U 22045A   22301.75530737  .00001040  00000-0  83435-4 0  9994,2 52331  53.2164 321.5353 0002517  32.7736 327.3412 15.08858740 30261,6917.823,95.436,541.429,537.947,0.0
52331.0,STARLINK-3889,PAYLOAD,2022-10-29 08:26:06,15.08853861,0.000256,53.2163,318.8579,29.9937,330.1201,-4.5329e-05,-1.01e-05,0.0,0 STARLINK-3889,1 52331U 22045A   22302.35146238 -.00001010  00000-0 -45329-4 0  9999,2 52331  53.2163 318.8579 0002560  29.9937 330.1201 15.08853861 30355,6917.8380000000025,95.437,541.474,537.932,0.0
52331.0,STARLINK-3889,PAYLOAD,2022-10-30 06:41:29,15.08853461,0.0002603,53.2165,314.6957,30.7644,329.35,0.00012363,1.6800000000000002e-05,0.0,0 STARLINK-3889,1 52331U 22045A   22303.27881767  .00001680  00000-0  12363-3 0  9996,2 52331  53.2165 314.6957 0002603  30.7644 329.3500 15.08853461 30497,6917.839,95.437,541.505,537.904,0.0
52331.0,STARLINK-3889,PAYLOAD,2022-10-31 09:43:05,15.08808929,0.0002393,53.2178,309.6395,31.5169,328.5966,0.00018347,2.63e-05,0.0,0 STARLINK-3889,1 52331U 22045A   22304.40492379  .00002630  00000-0  18347-3 0  9993,2 52331  53.2178 309.6395 0002393  31.5169 328.5966 15.08808929 30663,6917.975,95.44,541.496,538.185,0.0
52331.0,STARLINK-3889,PAYLOAD,2022-10-31 17:40:00,15.08834132,0.0002473,53.2175,308.1536,29.3406,330.7725,6.5275e-06,-1.85e-06,0.0,0 STARLINK-3889,1 52331U 22045A   22304.73611322 -.00000185  00000-0  65275-5 0  9998,2 52331  53.2175 308.1536 0002473  29.3406 330.7725 15.08834132 30718,6917.898,95.438,541.474,538.053,0.0
52331.0,STARLINK-3889,PAYLOAD,2022-11-01 03:12:18,15.08847576,0.0002457,53.2173,306.3689,29.3429,330.7701,2.8876e-05,1.71e-06,0.0,0 STARLINK-3889,1 52331U 22045A   22305.13354555  .00000171  00000-0  28876-4 0  9994,2 52331  53.2173 306.3689 0002457  29.3429 330.7701 15.08847576 30778,6917.857,95.437,541.422,538.023,0.0
52331.0,STARLINK-3889,PAYLOAD,2022-11-01 09:33:51,15.08835541,0.0002532,53.217,305.1793,32.1741,327.9405,-4.1022e-05,-9.41e-06,0.0,0 STARLINK-3889,1 52331U 22045A   22305.39851159 -.00000941  00000-0 -41022-4 0  9999,2 52331  53.2170 305.1793 0002532  32.1741 327.9405 15.08835541 30814,6917.894,95.438,541.511,538.007,0.0
52331.0,STARLINK-3889,PAYLOAD,2022-11-01 17:30:46,15.08840783,0.0002394,53.218,303.6928,34.9348,325.1801,0.00010073,1.315e-05,0.0,0 STARLINK-3889,1 52331U 22045A   22305.72970810  .00001315  00000-0  10073-3 0  9997,2 52331  53.2180 303.6928 0002394  34.9348 325.1801 15.08840783 30866,6917.878000000002,95.438,541.399,538.087,0.0
52331.0,STARLINK-3889,PAYLOAD,2022-11-01 23:52:19,15.08837108,0.0002541,53.2176,302.5035,29.3074,330.8061,0.00026225,3.888e-05,0.0,0 STARLINK-3889,1 52331U 22045A   22305.99466707  .00003888  00000-0  26225-3 0  9994,2 52331  53.2176 302.5035 0002541  29.3074 330.8061 15.08837108 30909,6917.889,95.438,541.512,537.996,0.0
52331.0,STARLINK-3889,PAYLOAD,2022-11-02 06:13:51,15.08839082,0.0002522,53.2175,301.314,30.3528,329.761,0.00028132,4.192e-05,0.0,0 STARLINK-3889,1 52331U 22045A   22306.25962874  .00004192  00000-0  28132-3 0  9998,2 52331  53.2175 301.3140 0002522  30.3528 329.7610 15.08839082 30941,6917.8830000000025,95.438,541.493,538.004,0.0
